{
  "type": "FeatureCollection",
  "features": [
    {
      "type": "Feature",
      "properties": {
        "norad_id": 37320,
        "name": "COSMOS 2251 DEB",
        "group": "cosmos-2251-debris",
        "lat": 53.63031436684683,
        "lon": 29.565655491640705,
        "alt_km": 659.567867028034,
        "timestamp": "2025-12-05T11:32:56.414866+00:00",
        "meta_object_name": "COSMOS 2251 DEB",
        "meta_object_id": "1993-036BKL",
        "meta_epoch": "2025-12-04T10:38:11.970240",
        "meta_mean_motion": 14.78611049,
        "meta_eccentricity": 0.0046988,
        "meta_inclination": 74.0467,
        "meta_ra_of_asc_node": 234.4603,
        "meta_arg_of_pericenter": 323.115,
        "meta_mean_anomaly": 36.6796,
        "meta_ephemeris_type": 0,
        "meta_classification_type": "U",
        "meta_norad_cat_id": 37320,
        "meta_element_set_no": 999,
        "meta_rev_at_epoch": 66024,
        "meta_bstar": 0.0023021,
        "meta_mean_motion_dot": 0.00017178,
        "meta_mean_motion_ddot": 0,
        "tle_line1": "1 37320U 93036BKL 25338.44319410  .00017178  00000+0  23021-2 0  9996",
        "tle_line2": "2 37320  74.0467 234.4603 0046988 323.1150  36.6796 14.78611049660243"
      },
      "geometry": {
        "type": "Point",
        "coordinates": [
          29.565655491640705,
          53.63031436684683
        ]
      }
    },
    {
      "type": "Feature",
      "properties": {
        "norad_id": 37326,
        "name": "COSMOS 2251 DEB",
        "group": "cosmos-2251-debris",
        "lat": 53.194131855252934,
        "lon": 11.098431909551527,
        "alt_km": 665.7144333620172,
        "timestamp": "2025-12-05T11:32:56.414876+00:00",
        "meta_object_name": "COSMOS 2251 DEB",
        "meta_object_id": "1993-036BKS",
        "meta_epoch": "2025-12-04T07:21:50.716800",
        "meta_mean_motion": 14.61511015,
        "meta_eccentricity": 0.0054375,
        "meta_inclination": 74.026,
        "meta_ra_of_asc_node": 350.8371,
        "meta_arg_of_pericenter": 122.6776,
        "meta_mean_anomaly": 237.9652,
        "meta_ephemeris_type": 0,
        "meta_classification_type": "U",
        "meta_norad_cat_id": 37326,
        "meta_element_set_no": 999,
        "meta_rev_at_epoch": 85360,
        "meta_bstar": 0.001033,
        "meta_mean_motion_dot": 5.206e-05,
        "meta_mean_motion_ddot": 0,
        "tle_line1": "1 37326U 93036BKS 25338.30683700  .00005206  00000+0  10330-2 0  9991",
        "tle_line2": "2 37326  74.0260 350.8371 0054375 122.6776 237.9652 14.61511015853605"
      },
      "geometry": {
        "type": "Point",
        "coordinates": [
          11.098431909551527,
          53.194131855252934
        ]
      }
    },
    {
      "type": "Feature",
      "properties": {
        "norad_id": 37330,
        "name": "COSMOS 2251 DEB",
        "group": "cosmos-2251-debris",
        "lat": 67.49675962994571,
        "lon": 85.16887396622501,
        "alt_km": 663.5649160704206,
        "timestamp": "2025-12-05T11:32:56.414886+00:00",
        "meta_object_name": "COSMOS 2251 DEB",
        "meta_object_id": "1993-036BKW",
        "meta_epoch": "2025-12-04T15:19:22.190592",
        "meta_mean_motion": 14.59502669,
        "meta_eccentricity": 0.0057384,
        "meta_inclination": 74.017,
        "meta_ra_of_asc_node": 310.5526,
        "meta_arg_of_pericenter": 161.3662,
        "meta_mean_anomaly": 198.9623,
        "meta_ephemeris_type": 0,
        "meta_classification_type": "U",
        "meta_norad_cat_id": 37330,
        "meta_element_set_no": 999,
        "meta_rev_at_epoch": 86250,
        "meta_bstar": 0.00055935,
        "meta_mean_motion_dot": 2.687e-05,
        "meta_mean_motion_ddot": 0,
        "tle_line1": "1 37330U 93036BKW 25338.63845128  .00002687  00000+0  55935-3 0  9997",
        "tle_line2": "2 37330  74.0170 310.5526 0057384 161.3662 198.9623 14.59502669862507"
      },
      "geometry": {
        "type": "Point",
        "coordinates": [
          85.16887396622501,
          67.49675962994571
        ]
      }
    },
    {
      "type": "Feature",
      "properties": {
        "norad_id": 37331,
        "name": "COSMOS 2251 DEB",
        "group": "cosmos-2251-debris",
        "lat": 29.006732299382826,
        "lon": -107.96323318324427,
        "alt_km": 748.5826548694467,
        "timestamp": "2025-12-05T11:32:56.414896+00:00",
        "meta_object_name": "COSMOS 2251 DEB",
        "meta_object_id": "1993-036BKX",
        "meta_epoch": "2025-12-01T01:26:56.105376",
        "meta_mean_motion": 14.34963315,
        "meta_eccentricity": 0.0055446,
        "meta_inclination": 74.0748,
        "meta_ra_of_asc_node": 89.2257,
        "meta_arg_of_pericenter": 107.2854,
        "meta_mean_anomaly": 253.4376,
        "meta_ephemeris_type": 0,
        "meta_classification_type": "U",
        "meta_norad_cat_id": 37331,
        "meta_element_set_no": 999,
        "meta_rev_at_epoch": 84592,
        "meta_bstar": 0.00070853607,
        "meta_mean_motion_dot": 2.027e-05,
        "meta_mean_motion_ddot": 0,
        "tle_line1": "1 37331U 93036BKX 25335.06037159  .00002027  00000+0  70854-3 0  9994",
        "tle_line2": "2 37331  74.0748  89.2257 0055446 107.2854 253.4376 14.34963315845920"
      },
      "geometry": {
        "type": "Point",
        "coordinates": [
          -107.96323318324427,
          29.006732299382826
        ]
      }
    },
    {
      "type": "Feature",
      "properties": {
        "norad_id": 37336,
        "name": "COSMOS 2251 DEB",
        "group": "cosmos-2251-debris",
        "lat": -8.37292659360146,
        "lon": 166.88264094396857,
        "alt_km": 797.5327848184234,
        "timestamp": "2025-12-05T11:32:56.414906+00:00",
        "meta_object_name": "COSMOS 2251 DEB",
        "meta_object_id": "1993-036BLC",
        "meta_epoch": "2025-12-01T07:48:14.136768",
        "meta_mean_motion": 14.32750931,
        "meta_eccentricity": 0.00286304,
        "meta_inclination": 74.0414,
        "meta_ra_of_asc_node": 352.0528,
        "meta_arg_of_pericenter": 73.4193,
        "meta_mean_anomaly": 287.0099,
        "meta_ephemeris_type": 0,
        "meta_classification_type": "U",
        "meta_norad_cat_id": 37336,
        "meta_element_set_no": 999,
        "meta_rev_at_epoch": 64956,
        "meta_bstar": 8.422431e-05,
        "meta_mean_motion_dot": 2.05e-06,
        "meta_mean_motion_ddot": 0,
        "tle_line1": "1 37336U 93036BLC 25335.32516362  .00000205  00000+0  84224-4 0  9999",
        "tle_line2": "2 37336  74.0414 352.0528 0028630  73.4193 287.0099 14.32750931649565"
      },
      "geometry": {
        "type": "Point",
        "coordinates": [
          166.88264094396857,
          -8.37292659360146
        ]
      }
    },
    {
      "type": "Feature",
      "properties": {
        "norad_id": 37340,
        "name": "COSMOS 2251 DEB",
        "group": "cosmos-2251-debris",
        "lat": -56.68688670210847,
        "lon": -95.3303501153162,
        "alt_km": 774.9492658739209,
        "timestamp": "2025-12-05T11:32:56.414916+00:00",
        "meta_object_name": "COSMOS 2251 DEB",
        "meta_object_id": "1993-036BLG",
        "meta_epoch": "2025-12-02T15:19:15.488544",
        "meta_mean_motion": 14.36901939,
        "meta_eccentricity": 0.00173218,
        "meta_inclination": 74.0249,
        "meta_ra_of_asc_node": 295.7387,
        "meta_arg_of_pericenter": 33.3574,
        "meta_mean_anomaly": 326.8667,
        "meta_ephemeris_type": 0,
        "meta_classification_type": "U",
        "meta_norad_cat_id": 37340,
        "meta_element_set_no": 999,
        "meta_rev_at_epoch": 83922,
        "meta_bstar": 0.00027978609,
        "meta_mean_motion_dot": 8.03e-06,
        "meta_mean_motion_ddot": 0,
        "tle_line1": "1 37340U 93036BLG 25336.63837371  .00000803  00000+0  27979-3 0  9992",
        "tle_line2": "2 37340  74.0249 295.7387 0017321  33.3574 326.8667 14.36901939839222"
      },
      "geometry": {
        "type": "Point",
        "coordinates": [
          -95.3303501153162,
          -56.68688670210847
        ]
      }
    },
    {
      "type": "Feature",
      "properties": {
        "norad_id": 37483,
        "name": "COSMOS 2251 DEB",
        "group": "cosmos-2251-debris",
        "lat": -55.083270682798435,
        "lon": 1.1959148772127417,
        "alt_km": 792.4319307254918,
        "timestamp": "2025-12-05T11:32:56.414926+00:00",
        "meta_object_name": "COSMOS 2251 DEB",
        "meta_object_id": "1993-036BLL",
        "meta_epoch": "2025-12-02T19:14:27.105504",
        "meta_mean_motion": 14.43532369,
        "meta_eccentricity": 0.00926542,
        "meta_inclination": 73.9725,
        "meta_ra_of_asc_node": 161.8757,
        "meta_arg_of_pericenter": 10.6514,
        "meta_mean_anomaly": 349.6575,
        "meta_ephemeris_type": 0,
        "meta_classification_type": "U",
        "meta_norad_cat_id": 37483,
        "meta_element_set_no": 999,
        "meta_rev_at_epoch": 65136,
        "meta_bstar": 0.00025341126,
        "meta_mean_motion_dot": 8.75e-06,
        "meta_mean_motion_ddot": 0,
        "tle_line1": "1 37483U 93036BLL 25336.80170261  .00000875  00000+0  25341-3 0  9997",
        "tle_line2": "2 37483  73.9725 161.8757 0092654  10.6514 349.6575 14.43532369651368"
      },
      "geometry": {
        "type": "Point",
        "coordinates": [
          1.1959148772127417,
          -55.083270682798435
        ]
      }
    }
  ]
}